ONEWEB-0616             
1 55157U 23004T   24006.89346115  .00000015  00000+0  53333-5 0  9998
2 55157  87.9202 183.2749 0002194 129.3002 230.8324 13.17646564 50190
ONEWEB-0617             
1 55158U 23004U   24006.92861605 -.00000255  00000+0 -75523-3 0  9990
2 55158  87.8955 198.4271 0001359  68.8933 291.2340 13.11413625 48915
ONEWEB-0618             
1 55159U 23004V   24006.89420085  .00002085  00000+0  85297-3 0  9990
2 55159  86.9117 150.8574 0015549  90.9233 269.3741 14.26744397 52207
ONEWEB-0619             
1 55160U 23004W   24006.92509366  .00000065  00000+0  13327-3 0  9997
2 55160  87.9201 183.2446 0001152 118.3864 241.7383 13.17647908 50092
ONEWEB-0620             
1 55161U 23004X   24006.92375956 -.00000125  00000+0 -38822-3 0  9990
2 55161  87.8955 198.4341 0001619  68.4588 291.6712 13.11414656 48886
ONEWEB-0621             
1 55162U 23004Y   24006.56823890 -.00000211  00000+0 -63120-3 0  9991
2 55162  87.8953 198.4783 0001050  92.9671 267.1577 13.11419083 48818
ONEWEB-0622             
1 55163U 23004Z   24006.57473081  .00000002  00000+0 -30329-4 0  9999
2 55163  87.8955 198.4908 0001421  49.4642 310.6609 13.11420234 48806
ONEWEB-0623             
1 55164U 23004AA  24006.92035958  .00000097  00000+0  21618-3 0  9999
2 55164  87.9204 183.2988 0001043  56.7918 303.3313 13.17649414 50085
